ORBCOMM FM20            
1 25416U 98046D   25361.05497899  .00001204  00000+0  44368-3 0  9997
2 25416  44.9952 347.5866 0002235 268.0645  91.9947 14.37696722432011
ORBCOMM FM16            
1 25417U 98046E   25361.15927921  .00001686  00000+0  58018-3 0  9994
2 25417  44.9949 336.0143 0004327 221.8890 138.1628 14.39573206432059
ORBCOMM FM15            
1 25418U 98046F   25360.69837060  .00001369  00000+0  48316-3 0  9995
2 25418  44.9981 343.9389 0004189 221.6487 138.4043 14.39198987431974
ORBCOMM FM14            
1 25419U 98046G   25361.15024943  .00001524  00000+0  52843-3 0  9999
2 25419  44.9968 339.4373 0002977 231.9776 128.0805 14.39620889432019
ORBCOMM FM13            
1 25420U 98046H   25361.16187105  .00001252  00000+0  45449-3 0  9994
2 25420  44.9985 349.3240 0004346 195.3457 164.7260 14.38231547431013
ORBCOMM FM21            
1 25475U 98053A   25360.93867376  .00001140  00000+0  42152-3 0  9995
2 25475  45.0086  76.3835 0001828 189.0429 171.0387 14.37825522424985
ORBCOMM FM22            
1 25476U 98053B   25361.17503203  .00001428  00000+0  50408-3 0  9991
2 25476  45.0079  68.4676 0002663 157.5422 202.5543 14.39003899425065
ORBCOMM FM23            
1 25477U 98053C   25361.18933667  .00001337  00000+0  48381-3 0  9990
2 25477  45.0083  77.0088 0002141 162.0234 198.0691 14.38067407425176
